{"type": "FeatureCollection", "features": [{"type": "Feature", "properties": {"norad_id": 22490, "name": "SCD 1", "group": "resource", "lat": 24.306274087141176, "lon": -40.61959312793639, "alt_km": 706.9609947137578, "timestamp": "2025-12-22T23:36:20.356059+00:00", "meta": {"OBJECT_NAME": "SCD 1", "OBJECT_ID": "1993-009B", "EPOCH": "2025-12-21T17:33:16.575840", "MEAN_MOTION": 14.46004662, "ECCENTRICITY": 0.00421475, "INCLINATION": 24.9681, "RA_OF_ASC_NODE": 223.1799, "ARG_OF_PERICENTER": 60.1108, "MEAN_ANOMALY": 350.9705, "EPHEMERIS_TYPE": 0, "CLASSIFICATION_TYPE": "U", "NORAD_CAT_ID": 22490, "ELEMENT_SET_NO": 999, "REV_AT_EPOCH": 73540, "BSTAR": 6.8233163e-05, "MEAN_MOTION_DOT": 4.34e-06, "MEAN_MOTION_DDOT": 0}, "tle": {"line1": "1 22490U 93009B   25355.73144185  .00000434  00000+0  68233-4 0  9997", "line2": "2 22490  24.9681 223.1799 0042147  60.1108 350.9705 14.46004662735407"}}, "geometry": {"type": "Point", "coordinates": [-40.61959312793639, 24.306274087141176]}}, {"type": "Feature", "properties": {"norad_id": 25397, "name": "TECHSAT 1B (GO-32)", "group": "resource", "lat": 70.29444423666281, "lon": -173.32617717116906, "alt_km": 803.2445303850118, "timestamp": "2025-12-22T23:36:20.356088+00:00", "meta": {"OBJECT_NAME": "TECHSAT 1B (GO-32)", "OBJECT_ID": "1998-043D", "EPOCH": "2025-12-22T12:59:14.117568", "MEAN_MOTION": 14.24379637, "ECCENTRICITY": 0.00017553, "INCLINATION": 98.9931, "RA_OF_ASC_NODE": 339.9798, "ARG_OF_PERICENTER": 41.7651, "MEAN_ANOMALY": 318.366, "EPHEMERIS_TYPE": 0, "CLASSIFICATION_TYPE": "U", "NORAD_CAT_ID": 25397, "ELEMENT_SET_NO": 999, "REV_AT_EPOCH": 42618, "BSTAR": 4.873293e-05, "MEAN_MOTION_DOT": 6.6e-07, "MEAN_MOTION_DDOT": 0}, "tle": {"line1": "1 25397U 98043D   25356.54113562  .00000066  00000+0  48733-4 0  9998", "line2": "2 25397  98.9931 339.9798 0001755  41.7651 318.3660 14.24379637426181"}}, "geometry": {"type": "Point", "coordinates": [-173.32617717116906, 70.29444423666281]}}, {"type": "Feature", "properties": {"norad_id": 25504, "name": "SCD 2", "group": "resource", "lat": 22.83172979652188, "lon": -165.91096807535237, "alt_km": 727.7218078028764, "timestamp": "2025-12-22T23:36:20.356103+00:00", "meta": {"OBJECT_NAME": "SCD 2", "OBJECT_ID": "1998-060A", "EPOCH": "2025-12-22T13:43:51.661344", "MEAN_MOTION": 14.45428389, "ECCENTRICITY": 0.00170381, "INCLINATION": 24.995, "RA_OF_ASC_NODE": 81.268, "ARG_OF_PERICENTER": 57.3141, "MEAN_ANOMALY": 70.4523, "EPHEMERIS_TYPE": 0, "CLASSIFICATION_TYPE": "U", "NORAD_CAT_ID": 25504, "ELEMENT_SET_NO": 999, "REV_AT_EPOCH": 43474, "BSTAR": 6.2921219e-05, "MEAN_MOTION_DOT": 4.07e-06, "MEAN_MOTION_DDOT": 0}, "tle": {"line1": "1 25504U 98060A   25356.57212571  .00000407  00000+0  62921-4 0  9994", "line2": "2 25504  24.9950  81.2680 0017038  57.3141  70.4523 14.45428389434743"}}, "geometry": {"type": "Point", "coordinates": [-165.91096807535237, 22.83172979652188]}}, {"type": "Feature", "properties": {"norad_id": 25757, "name": "DLR-TUBSAT", "group": "resource", "lat": -79.36209984824288, "lon": 36.01577705213027, "alt_km": 729.4868668912341, "timestamp": "2025-12-22T23:36:20.356116+00:00", "meta": {"OBJECT_NAME": "DLR-TUBSAT", "OBJECT_ID": "1999-029B", "EPOCH": "2025-12-17T13:22:10.787520", "MEAN_MOTION": 14.52359578, "ECCENTRICITY": 0.00141996, "INCLINATION": 98.6566, "RA_OF_ASC_NODE": 336.2196, "ARG_OF_PERICENTER": 177.8976, "MEAN_ANOMALY": 182.2281, "EPHEMERIS_TYPE": 0, "CLASSIFICATION_TYPE": "U", "NORAD_CAT_ID": 25757, "ELEMENT_SET_NO": 999, "REV_AT_EPOCH": 40688, "BSTAR": 3.7650132e-05, "MEAN_MOTION_DOT": 1.05e-06, "MEAN_MOTION_DDOT": 0}, "tle": {"line1": "1 25757U 99029B   25351.55706930  .00000105  00000+0  37650-4 0  9996", "line2": "2 25757  98.6566 336.2196 0014199 177.8976 182.2281 14.52359578406886"}}, "geometry": {"type": "Point", "coordinates": [36.01577705213027, -79.36209984824288]}}, {"type": "Feature", "properties": {"norad_id": 25994, "name": "TERRA", "group": "resource", "lat": -65.35991226239899, "lon": 66.08393385350278, "alt_km": 699.3410637145307, "timestamp": "2025-12-22T23:36:20.356129+00:00", "meta": {"OBJECT_NAME": "TERRA", "OBJECT_ID": "1999-068A", "EPOCH": "2025-12-22T11:19:30.972000", "MEAN_MOTION": 14.60912496, "ECCENTRICITY": 0.00034885, "INCLINATION": 97.9734, "RA_OF_ASC_NODE": 47.7986, "ARG_OF_PERICENTER": 74.9853, "MEAN_ANOMALY": 49.0039, "EPHEMERIS_TYPE": 0, "CLASSIFICATION_TYPE": "U", "NORAD_CAT_ID": 25994, "ELEMENT_SET_NO": 999, "REV_AT_EPOCH": 38380, "BSTAR": 0.00010679537, "MEAN_MOTION_DOT": 4.78e-06, "MEAN_MOTION_DDOT": 0}, "tle": {"line1": "1 25994U 99068A   25356.47188625  .00000478  00000+0  10680-3 0  9999", "line2": "2 25994  97.9734  47.7986 0003488  74.9853  49.0039 14.60912496383809"}}, "geometry": {"type": "Point", "coordinates": [66.08393385350278, -65.35991226239899]}}, {"type": "Feature", "properties": {"norad_id": 27004, "name": "MAROC-TUBSAT", "group": "resource", "lat": -4.916630404757099, "lon": -15.243386142308704, "alt_km": 992.6108261802483, "timestamp": "2025-12-22T23:36:20.356141+00:00", "meta": {"OBJECT_NAME": "MAROC-TUBSAT", "OBJECT_ID": "2001-056D", "EPOCH": "2025-12-22T08:59:06.016416", "MEAN_MOTION": 13.70253386, "ECCENTRICITY": 0.00192156, "INCLINATION": 99.7916, "RA_OF_ASC_NODE": 164.9882, "ARG_OF_PERICENTER": 234.5504, "MEAN_ANOMALY": 186.9487, "EPHEMERIS_TYPE": 0, "CLASSIFICATION_TYPE": "U", "NORAD_CAT_ID": 27004, "ELEMENT_SET_NO": 999, "REV_AT_EPOCH": 20197, "BSTAR": 2.5339706e-05, "MEAN_MOTION_DOT": -2.4e-07, "MEAN_MOTION_DDOT": 0}, "tle": {"line1": "1 27004U 01056D   25356.37437519 -.00000024  00000+0  25340-4 0  9999", "line2": "2 27004  99.7916 164.9882 0019215 234.5504 186.9487 13.70253386201975"}}, "geometry": {"type": "Point", "coordinates": [-15.243386142308704, -4.916630404757099]}}, {"type": "Feature", "properties": {"norad_id": 27424, "name": "AQUA", "group": "resource", "lat": -22.348367644560774, "lon": 134.54486578313924, "alt_km": 692.7668910256343, "timestamp": "2025-12-22T23:36:20.356152+00:00", "meta": {"OBJECT_NAME": "AQUA", "OBJECT_ID": "2002-022A", "EPOCH": "2025-12-21T22:23:22.229952", "MEAN_MOTION": 14.61820667, "ECCENTRICITY": 0.0001439, "INCLINATION": 98.405, "RA_OF_ASC_NODE": 316.9619, "ARG_OF_PERICENTER": 110.3776, "MEAN_ANOMALY": 326.1362, "EPHEMERIS_TYPE": 0, "CLASSIFICATION_TYPE": "U", "NORAD_CAT_ID": 27424, "ELEMENT_SET_NO": 999, "REV_AT_EPOCH": 25737, "BSTAR": 0.00018434, "MEAN_MOTION_DOT": 8.71e-06, "MEAN_MOTION_DDOT": 0}, "tle": {"line1": "1 27424U 02022A   25355.93289618  .00000871  00000+0  18434-3 0  9999", "line2": "2 27424  98.4050 316.9619 0001439 110.3776 326.1362 14.61820667257372"}}, "geometry": {"type": "Point", "coordinates": [134.54486578313924, -22.348367644560774]}}, {"type": "Feature", "properties": {"norad_id": 28051, "name": "IRS-P6 (RESOURCESAT-1)", "group": "resource", "lat": -19.211525488793047, "lon": -145.97053899242928, "alt_km": 746.1631944595147, "timestamp": "2025-12-22T23:36:20.356163+00:00", "meta": {"OBJECT_NAME": "IRS-P6 (RESOURCESAT-1)", "OBJECT_ID": "2003-046A", "EPOCH": "2025-12-22T19:37:15.032640", "MEAN_MOTION": 14.36078709, "ECCENTRICITY": 0.006476, "INCLINATION": 98.2163, "RA_OF_ASC_NODE": 36.7571, "ARG_OF_PERICENTER": 150.552, "MEAN_ANOMALY": 270.3129, "EPHEMERIS_TYPE": 0, "CLASSIFICATION_TYPE": "U", "NORAD_CAT_ID": 28051, "ELEMENT_SET_NO": 999, "REV_AT_EPOCH": 15521, "BSTAR": 5.3873e-05, "MEAN_MOTION_DOT": 1.2e-06, "MEAN_MOTION_DDOT": 0}, "tle": {"line1": "1 28051U 03046A   25356.81753510  .00000120  00000+0  53873-4 0  9992", "line2": "2 28051  98.2163  36.7571 0064760 150.5520 270.3129 14.36078709155210"}}, "geometry": {"type": "Point", "coordinates": [-145.97053899242928, -19.211525488793047]}}, {"type": "Feature", "properties": {"norad_id": 28220, "name": "SHIYAN-1 (SY-1)", "group": "resource", "lat": -46.69234143828492, "lon": -129.33541187886883, "alt_km": 485.4886399780071, "timestamp": "2025-12-22T23:36:20.356174+00:00", "meta": {"OBJECT_NAME": "SHIYAN-1 (SY-1)", "OBJECT_ID": "2004-012A", "EPOCH": "2025-12-21T21:28:24.522528", "MEAN_MOTION": 15.28363795, "ECCENTRICITY": 0.00051617, "INCLINATION": 97.8924, "RA_OF_ASC_NODE": 57.9743, "ARG_OF_PERICENTER": 287.3834, "MEAN_ANOMALY": 72.684, "EPHEMERIS_TYPE": 0, "CLASSIFICATION_TYPE": "U", "NORAD_CAT_ID": 28220, "ELEMENT_SET_NO": 999, "REV_AT_EPOCH": 18396, "BSTAR": 0.00048309009, "MEAN_MOTION_DOT": 0.00013276, "MEAN_MOTION_DDOT": 0}, "tle": {"line1": "1 28220U 04012A   25355.89472827  .00013276  00000+0  48309-3 0  9993", "line2": "2 28220  97.8924  57.9743 0005161 287.3834  72.6840 15.28363795183961"}}, "geometry": {"type": "Point", "coordinates": [-129.33541187886883, -46.69234143828492]}}, {"type": "Feature", "properties": {"norad_id": 28376, "name": "AURA", "group": "resource", "lat": -57.11758222615117, "lon": -39.659067605909115, "alt_km": 697.9644133950906, "timestamp": "2025-12-22T23:36:20.356185+00:00", "meta": {"OBJECT_NAME": "AURA", "OBJECT_ID": "2004-026A", "EPOCH": "2025-12-22T12:21:54.171648", "MEAN_MOTION": 14.60967711, "ECCENTRICITY": 0.00013936, "INCLINATION": 98.3199, "RA_OF_ASC_NODE": 306.7879, "ARG_OF_PERICENTER": 92.1922, "MEAN_ANOMALY": 267.9438, "EPHEMERIS_TYPE": 0, "CLASSIFICATION_TYPE": "U", "NORAD_CAT_ID": 28376, "ELEMENT_SET_NO": 999, "REV_AT_EPOCH": 14041, "BSTAR": 0.00019712098, "MEAN_MOTION_DOT": 9.18e-06, "MEAN_MOTION_DDOT": 0}, "tle": {"line1": "1 28376U 04026A   25356.51521032  .00000918  00000+0  19712-3 0  9998", "line2": "2 28376  98.3199 306.7879 0001393  92.1922 267.9438 14.60967711140419"}}, "geometry": {"type": "Point", "coordinates": [-39.659067605909115, -57.11758222615117]}}]}